{
  "type": "FeatureCollection",
  "features": [
    {
      "type": "Feature",
      "properties": {
        "norad_id": 30480,
        "name": "FENGYUN 1C DEB",
        "group": "fengyun-1c-debris",
        "lat": -13.151169038004063,
        "lon": 2.939131602562231,
        "alt_km": 896.2652181351013,
        "timestamp": "2025-12-12T03:50:52.693821+00:00",
        "meta_object_name": "FENGYUN 1C DEB",
        "meta_object_id": "1999-025AGS",
        "meta_epoch": "2025-12-10T23:34:27.141312",
        "meta_mean_motion": 14.33595592,
        "meta_eccentricity": 0.01663122,
        "meta_inclination": 98.224,
        "meta_ra_of_asc_node": 359.8824,
        "meta_arg_of_pericenter": 150.8857,
        "meta_mean_anomaly": 240.1267,
        "meta_ephemeris_type": 0,
        "meta_classification_type": "U",
        "meta_norad_cat_id": 30480,
        "meta_element_set_no": 999,
        "meta_rev_at_epoch": 98643,
        "meta_bstar": 0.00029713766,
        "meta_mean_motion_dot": 9.17e-06,
        "meta_mean_motion_ddot": 0,
        "tle_line1": "1 30480U 99025AGS 25344.98225858  .00000917  00000+0  29714-3 0  9997",
        "tle_line2": "2 30480  98.2240 359.8824 0166312 150.8857 240.1267 14.33595592986432"
      },
      "geometry": {
        "type": "Point",
        "coordinates": [
          2.939131602562231,
          -13.151169038004063
        ]
      }
    },
    {
      "type": "Feature",
      "properties": {
        "norad_id": 30481,
        "name": "FENGYUN 1C DEB",
        "group": "fengyun-1c-debris",
        "lat": 81.49034609005977,
        "lon": -75.06115855564511,
        "alt_km": 912.3918928257053,
        "timestamp": "2025-12-12T03:50:52.693831+00:00",
        "meta_object_name": "FENGYUN 1C DEB",
        "meta_object_id": "1999-025AGT",
        "meta_epoch": "2025-12-11T07:30:15.767136",
        "meta_mean_motion": 14.39029419,
        "meta_eccentricity": 0.02230337,
        "meta_inclination": 98.3371,
        "meta_ra_of_asc_node": 2.6549,
        "meta_arg_of_pericenter": 264.291,
        "meta_mean_anomaly": 115.6089,
        "meta_ephemeris_type": 0,
        "meta_classification_type": "U",
        "meta_norad_cat_id": 30481,
        "meta_element_set_no": 999,
        "meta_rev_at_epoch": 98463,
        "meta_bstar": 0.00097140285,
        "meta_mean_motion_dot": 3.962e-05,
        "meta_mean_motion_ddot": 0,
        "tle_line1": "1 30481U 99025AGT 25345.31268249  .00003962  00000+0  97140-3 0  9998",
        "tle_line2": "2 30481  98.3371   2.6549 0223033 264.2910 115.6089 14.39029419984634"
      },
      "geometry": {
        "type": "Point",
        "coordinates": [
          -75.06115855564511,
          81.49034609005977
        ]
      }
    },
    {
      "type": "Feature",
      "properties": {
        "norad_id": 30486,
        "name": "FENGYUN 1C DEB",
        "group": "fengyun-1c-debris",
        "lat": 38.31098117572895,
        "lon": 13.234050087455936,
        "alt_km": 233.4158391423689,
        "timestamp": "2025-12-12T03:50:52.693842+00:00",
        "meta_object_name": "FENGYUN 1C DEB",
        "meta_object_id": "1999-025AGY",
        "meta_epoch": "2025-12-10T00:58:10.064064",
        "meta_mean_motion": 16.04515988,
        "meta_eccentricity": 0.00120383,
        "meta_inclination": 98.7932,
        "meta_ra_of_asc_node": 17.4416,
        "meta_arg_of_pericenter": 209.881,
        "meta_mean_anomaly": 150.178,
        "meta_ephemeris_type": 0,
        "meta_classification_type": "U",
        "meta_norad_cat_id": 30486,
        "meta_element_set_no": 999,
        "meta_rev_at_epoch": 1711,
        "meta_bstar": 0.0030849808,
        "meta_mean_motion_dot": 0.01963178,
        "meta_mean_motion_ddot": 0.0028697299,
        "tle_line1": "1 30486U 99025AGY 25344.04039426  .01963178  28697-2  30850-2 0  9999",
        "tle_line2": "2 30486  98.7932  17.4416 0012038 209.8810 150.1780 16.04515988 17115"
      },
      "geometry": {
        "type": "Point",
        "coordinates": [
          13.234050087455936,
          38.31098117572895
        ]
      }
    },
    {
      "type": "Feature",
      "properties": {
        "norad_id": 30489,
        "name": "FENGYUN 1C DEB",
        "group": "fengyun-1c-debris",
        "lat": -7.6365602613869195,
        "lon": 2.2265560353817895,
        "alt_km": 834.4068204675586,
        "timestamp": "2025-12-12T03:50:52.693852+00:00",
        "meta_object_name": "FENGYUN 1C DEB",
        "meta_object_id": "1999-025AHB",
        "meta_epoch": "2025-12-11T13:21:11.021184",
        "meta_mean_motion": 14.15818391,
        "meta_eccentricity": 0.01389398,
        "meta_inclination": 98.4687,
        "meta_ra_of_asc_node": 0.5077,
        "meta_arg_of_pericenter": 268.4774,
        "meta_mean_anomaly": 245.7486,
        "meta_ephemeris_type": 0,
        "meta_classification_type": "U",
        "meta_norad_cat_id": 30489,
        "meta_element_set_no": 999,
        "meta_rev_at_epoch": 97370,
        "meta_bstar": 0.00041255252,
        "meta_mean_motion_dot": 8.48e-06,
        "meta_mean_motion_ddot": 0,
        "tle_line1": "1 30489U 99025AHB 25345.55637756  .00000848  00000+0  41255-3 0  9991",
        "tle_line2": "2 30489  98.4687   0.5077 0138939 268.4774 245.7486 14.15818391973701"
      },
      "geometry": {
        "type": "Point",
        "coordinates": [
          2.2265560353817895,
          -7.6365602613869195
        ]
      }
    },
    {
      "type": "Feature",
      "properties": {
        "norad_id": 30490,
        "name": "FENGYUN 1C DEB",
        "group": "fengyun-1c-debris",
        "lat": -80.2928347492054,
        "lon": 176.68644148480502,
        "alt_km": 517.5423835725715,
        "timestamp": "2025-12-12T03:50:52.693861+00:00",
        "meta_object_name": "FENGYUN 1C DEB",
        "meta_object_id": "1999-025AHC",
        "meta_epoch": "2025-12-11T15:39:03.845376",
        "meta_mean_motion": 15.28152361,
        "meta_eccentricity": 0.00475692,
        "meta_inclination": 98.3307,
        "meta_ra_of_asc_node": 117.1798,
        "meta_arg_of_pericenter": 122.5788,
        "meta_mean_anomaly": 238.0056,
        "meta_ephemeris_type": 0,
        "meta_classification_type": "U",
        "meta_norad_cat_id": 30490,
        "meta_element_set_no": 999,
        "meta_rev_at_epoch": 99479,
        "meta_bstar": 0.0048497482,
        "meta_mean_motion_dot": 0.00139866,
        "meta_mean_motion_ddot": 0,
        "tle_line1": "1 30490U 99025AHC 25345.65212784  .00139866  00000+0  48497-2 0  9991",
        "tle_line2": "2 30490  98.3307 117.1798 0047569 122.5788 238.0056 15.28152361994792"
      },
      "geometry": {
        "type": "Point",
        "coordinates": [
          176.68644148480502,
          -80.2928347492054
        ]
      }
    },
    {
      "type": "Feature",
      "properties": {
        "norad_id": 30492,
        "name": "FENGYUN 1C DEB",
        "group": "fengyun-1c-debris",
        "lat": 26.928726599070874,
        "lon": -3.239597039568105,
        "alt_km": 664.4979110261966,
        "timestamp": "2025-12-12T03:50:52.693872+00:00",
        "meta_object_name": "FENGYUN 1C DEB",
        "meta_object_id": "1999-025AHE",
        "meta_epoch": "2025-12-10T18:38:36.194784",
        "meta_mean_motion": 14.51759479,
        "meta_eccentricity": 0.00949463,
        "meta_inclination": 102.3267,
        "meta_ra_of_asc_node": 1.116,
        "meta_arg_of_pericenter": 68.4041,
        "meta_mean_anomaly": 292.7223,
        "meta_ephemeris_type": 0,
        "meta_classification_type": "U",
        "meta_norad_cat_id": 30492,
        "meta_element_set_no": 999,
        "meta_rev_at_epoch": 96866,
        "meta_bstar": 0.0049309504,
        "meta_mean_motion_dot": 0.00021004,
        "meta_mean_motion_ddot": 0,
        "tle_line1": "1 30492U 99025AHE 25344.77680781  .00021004  00000+0  49310-2 0  9990",
        "tle_line2": "2 30492 102.3267   1.1160 0094946  68.4041 292.7223 14.51759479968669"
      },
      "geometry": {
        "type": "Point",
        "coordinates": [
          -3.239597039568105,
          26.928726599070874
        ]
      }
    },
    {
      "type": "Feature",
      "properties": {
        "norad_id": 30493,
        "name": "FENGYUN 1C DEB",
        "group": "fengyun-1c-debris",
        "lat": 67.1940301862704,
        "lon": 17.551437324580487,
        "alt_km": 948.7216319395484,
        "timestamp": "2025-12-12T03:50:52.693882+00:00",
        "meta_object_name": "FENGYUN 1C DEB",
        "meta_object_id": "1999-025AHF",
        "meta_epoch": "2025-12-11T07:28:49.384416",
        "meta_mean_motion": 13.92947494,
        "meta_eccentricity": 0.0181367,
        "meta_inclination": 98.5717,
        "meta_ra_of_asc_node": 175.7451,
        "meta_arg_of_pericenter": 220.7617,
        "meta_mean_anomaly": 319.0855,
        "meta_ephemeris_type": 0,
        "meta_classification_type": "U",
        "meta_norad_cat_id": 30493,
        "meta_element_set_no": 999,
        "meta_rev_at_epoch": 95075,
        "meta_bstar": 0.0053725968,
        "meta_mean_motion_dot": 7.951e-05,
        "meta_mean_motion_ddot": 0,
        "tle_line1": "1 30493U 99025AHF 25345.31168269  .00007951  00000+0  53726-2 0  9995",
        "tle_line2": "2 30493  98.5717 175.7451 0181367 220.7617 319.0855 13.92947494950758"
      },
      "geometry": {
        "type": "Point",
        "coordinates": [
          17.551437324580487,
          67.1940301862704
        ]
      }
    }
  ]
}